[{"OBJECT_NAME":"STARLINK-11560 [DTC]","OBJECT_ID":"2025-027L","EPOCH":"2025-10-31T14:56:52.721952","MEAN_MOTION":15.70830698,"ECCENTRICITY":0.0001928,"INCLINATION":42.9994,"RA_OF_ASC_NODE":45.5999,"ARG_OF_PERICENTER":273.6023,"MEAN_ANOMALY":86.4624,"EPHEMERIS_TYPE":0,"CLASSIFICATION_TYPE":"U","NORAD_CAT_ID":62917,"ELEMENT_SET_NO":999,"REV_AT_EPOCH":4285,"BSTAR":0.0019494,"MEAN_MOTION_DOT":0.0025749,"MEAN_MOTION_DDOT":0},{"OBJECT_NAME":"STARLINK-11562 [DTC]","OBJECT_ID":"2025-027M","EPOCH":"2025-10-31T17:44:42.540000","MEAN_MOTION":15.70819711,"ECCENTRICITY":0.000193,"INCLINATION":42.9997,"RA_OF_ASC_NODE":44.7471,"ARG_OF_PERICENTER":276.0242,"MEAN_ANOMALY":84.0406,"EPHEMERIS_TYPE":0,"CLASSIFICATION_TYPE":"U","NORAD_CAT_ID":62918,"ELEMENT_SET_NO":999,"REV_AT_EPOCH":4291,"BSTAR":0.0023099,"MEAN_MOTION_DOT":0.0030689,"MEAN_MOTION_DDOT":0},{"OBJECT_NAME":"STARLINK-11457 [DTC]","OBJECT_ID":"2025-027N","EPOCH":"2025-10-31T15:57:52.690752","MEAN_MOTION":15.71098007,"ECCENTRICITY":0.0001917,"INCLINATION":42.9987,"RA_OF_ASC_NODE":45.0446,"ARG_OF_PERICENTER":5.0732,"MEAN_ANOMALY":355.0155,"EPHEMERIS_TYPE":0,"CLASSIFICATION_TYPE":"U","NORAD_CAT_ID":62919,"ELEMENT_SET_NO":999,"REV_AT_EPOCH":4286,"BSTAR":0.0021785,"MEAN_MOTION_DOT":0.00292293,"MEAN_MOTION_DDOT":0},{"OBJECT_NAME":"STARLINK-32921","OBJECT_ID":"2025-027P","EPOCH":"2025-10-31T13:12:13.177728","MEAN_MOTION":15.27614775,"ECCENTRICITY":0.000345,"INCLINATION":43.0003,"RA_OF_ASC_NODE":138.0467,"ARG_OF_PERICENTER":293.9943,"MEAN_ANOMALY":66.0547,"EPHEMERIS_TYPE":0,"CLASSIFICATION_TYPE":"U","NORAD_CAT_ID":62920,"ELEMENT_SET_NO":999,"REV_AT_EPOCH":4179,"BSTAR":0.0014529,"MEAN_MOTION_DOT":0.00039983,"MEAN_MOTION_DDOT":0},{"OBJECT_NAME":"STARLINK-32917","OBJECT_ID":"2025-027Q","EPOCH":"2025-10-31T19:49:11.212608","MEAN_MOTION":15.27594126,"ECCENTRICITY":0.0002218,"INCLINATION":43.0005,"RA_OF_ASC_NODE":136.6736,"ARG_OF_PERICENTER":267.8417,"MEAN_ANOMALY":92.2181,"EPHEMERIS_TYPE":0,"CLASSIFICATION_TYPE":"U","NORAD_CAT_ID":62921,"ELEMENT_SET_NO":999,"REV_AT_EPOCH":4183,"BSTAR":0.0011229,"MEAN_MOTION_DOT":0.00030782,"MEAN_MOTION_DDOT":0},{"OBJECT_NAME":"STARLINK-32916","OBJECT_ID":"2025-027R","EPOCH":"2025-10-31T13:17:45.722688","MEAN_MOTION":15.27584724,"ECCENTRICITY":9.41e-5,"INCLINATION":42.9989,"RA_OF_ASC_NODE":138.0705,"ARG_OF_PERICENTER":267.7872,"MEAN_ANOMALY":92.2872,"EPHEMERIS_TYPE":0,"CLASSIFICATION_TYPE":"U","NORAD_CAT_ID":62922,"ELEMENT_SET_NO":999,"REV_AT_EPOCH":4179,"BSTAR":0.00016792,"MEAN_MOTION_DOT":4.362e-5,"MEAN_MOTION_DDOT":0},{"OBJECT_NAME":"STARLINK-32905","OBJECT_ID":"2025-027S","EPOCH":"2025-10-31T20:05:50.923680","MEAN_MOTION":15.27583856,"ECCENTRICITY":0.0002802,"INCLINATION":43.0071,"RA_OF_ASC_NODE":136.7659,"ARG_OF_PERICENTER":278.0727,"MEAN_ANOMALY":81.9807,"EPHEMERIS_TYPE":0,"CLASSIFICATION_TYPE":"U","NORAD_CAT_ID":62923,"ELEMENT_SET_NO":999,"REV_AT_EPOCH":4183,"BSTAR":0.0011866,"MEAN_MOTION_DOT":0.00032541,"MEAN_MOTION_DDOT":0},{"OBJECT_NAME":"STARLINK-32871","OBJECT_ID":"2025-027T","EPOCH":"2025-10-31T13:27:01.017216","MEAN_MOTION":15.27577436,"ECCENTRICITY":0.0001721,"INCLINATION":42.9988,"RA_OF_ASC_NODE":138.1173,"ARG_OF_PERICENTER":269.741,"MEAN_ANOMALY":90.3244,"EPHEMERIS_TYPE":0,"CLASSIFICATION_TYPE":"U","NORAD_CAT_ID":62924,"ELEMENT_SET_NO":999,"REV_AT_EPOCH":4179,"BSTAR":0.0016041,"MEAN_MOTION_DOT":0.00044142,"MEAN_MOTION_DDOT":0},{"OBJECT_NAME":"STARLINK-32920","OBJECT_ID":"2025-027U","EPOCH":"2025-10-31T13:21:27.908064","MEAN_MOTION":15.27609255,"ECCENTRICITY":0.0003674,"INCLINATION":42.9988,"RA_OF_ASC_NODE":138.0872,"ARG_OF_PERICENTER":292.4863,"MEAN_ANOMALY":67.5599,"EPHEMERIS_TYPE":0,"CLASSIFICATION_TYPE":"U","NORAD_CAT_ID":62925,"ELEMENT_SET_NO":999,"REV_AT_EPOCH":4179,"BSTAR":0.0011674,"MEAN_MOTION_DOT":0.00032034,"MEAN_MOTION_DDOT":0},{"OBJECT_NAME":"STARLINK-32922","OBJECT_ID":"2025-027V","EPOCH":"2025-10-31T13:43:40.219392","MEAN_MOTION":15.2758915,"ECCENTRICITY":0.00017,"INCLINATION":43.0016,"RA_OF_ASC_NODE":138.2098,"ARG_OF_PERICENTER":269.398,"MEAN_ANOMALY":90.6677,"EPHEMERIS_TYPE":0,"CLASSIFICATION_TYPE":"U","NORAD_CAT_ID":62926,"ELEMENT_SET_NO":999,"REV_AT_EPOCH":4179,"BSTAR":0.0016804,"MEAN_MOTION_DOT":0.00046284,"MEAN_MOTION_DDOT":0},{"OBJECT_NAME":"STARLINK-32891","OBJECT_ID":"2025-027W","EPOCH":"2025-10-31T20:09:32.671872","MEAN_MOTION":15.2762512,"ECCENTRICITY":5.83e-5,"INCLINATION":43.0002,"RA_OF_ASC_NODE":136.7824,"ARG_OF_PERICENTER":239.3298,"MEAN_ANOMALY":120.7496,"EPHEMERIS_TYPE":0,"CLASSIFICATION_TYPE":"U","NORAD_CAT_ID":62927,"ELEMENT_SET_NO":999,"REV_AT_EPOCH":4195,"BSTAR":0.0014001,"MEAN_MOTION_DOT":0.00038519,"MEAN_MOTION_DDOT":0},{"OBJECT_NAME":"STARLINK-32728","OBJECT_ID":"2025-029A","EPOCH":"2025-10-31T18:39:56.475936","MEAN_MOTION":15.30189562,"ECCENTRICITY":0.000113,"INCLINATION":53.1608,"RA_OF_ASC_NODE":108.893,"ARG_OF_PERICENTER":118.25,"MEAN_ANOMALY":241.8615,"EPHEMERIS_TYPE":0,"CLASSIFICATION_TYPE":"U","NORAD_CAT_ID":62948,"ELEMENT_SET_NO":999,"REV_AT_EPOCH":4165,"BSTAR":0.00088547,"MEAN_MOTION_DOT":0.00025949,"MEAN_MOTION_DDOT":0},{"OBJECT_NAME":"STARLINK-32857","OBJECT_ID":"2025-029B","EPOCH":"2025-10-31T18:17:09.057696","MEAN_MOTION":15.30180231,"ECCENTRICITY":0.0001117,"INCLINATION":53.1564,"RA_OF_ASC_NODE":108.806,"ARG_OF_PERICENTER":83.3955,"MEAN_ANOMALY":276.7173,"EPHEMERIS_TYPE":0,"CLASSIFICATION_TYPE":"U","NORAD_CAT_ID":62949,"ELEMENT_SET_NO":999,"REV_AT_EPOCH":4165,"BSTAR":0.00065007,"MEAN_MOTION_DOT":0.00018931,"MEAN_MOTION_DDOT":0},{"OBJECT_NAME":"STARLINK-32850","OBJECT_ID":"2025-029C","EPOCH":"2025-10-31T17:37:02.404704","MEAN_MOTION":15.30214689,"ECCENTRICITY":7.78e-5,"INCLINATION":53.16,"RA_OF_ASC_NODE":111.4621,"ARG_OF_PERICENTER":86.2473,"MEAN_ANOMALY":273.8617,"EPHEMERIS_TYPE":0,"CLASSIFICATION_TYPE":"U","NORAD_CAT_ID":62950,"ELEMENT_SET_NO":999,"REV_AT_EPOCH":4158,"BSTAR":0.0015607,"MEAN_MOTION_DOT":0.00046173,"MEAN_MOTION_DDOT":0},{"OBJECT_NAME":"STARLINK-32875","OBJECT_ID":"2025-029D","EPOCH":"2025-10-31T17:21:04.830912","MEAN_MOTION":15.30237969,"ECCENTRICITY":0.000121,"INCLINATION":53.1601,"RA_OF_ASC_NODE":109.2648,"ARG_OF_PERICENTER":84.9205,"MEAN_ANOMALY":275.1933,"EPHEMERIS_TYPE":0,"CLASSIFICATION_TYPE":"U","NORAD_CAT_ID":62951,"ELEMENT_SET_NO":999,"REV_AT_EPOCH":4161,"BSTAR":0.0020639,"MEAN_MOTION_DOT":0.00061346,"MEAN_MOTION_DDOT":0},{"OBJECT_NAME":"STARLINK-32865","OBJECT_ID":"2025-029E","EPOCH":"2025-10-31T19:01:58.793376","MEAN_MOTION":15.30185247,"ECCENTRICITY":9.85e-5,"INCLINATION":53.1592,"RA_OF_ASC_NODE":111.1177,"ARG_OF_PERICENTER":85.7432,"MEAN_ANOMALY":274.3681,"EPHEMERIS_TYPE":0,"CLASSIFICATION_TYPE":"U","NORAD_CAT_ID":62952,"ELEMENT_SET_NO":999,"REV_AT_EPOCH":4159,"BSTAR":0.0014922,"MEAN_MOTION_DOT":0.00044078,"MEAN_MOTION_DDOT":0}]
