STARLINK-11560 [DTC]    
1 62917U 25027L   25304.62283243  .00257490  00000+0  19494-2 0  9990
2 62917  42.9994  45.5999 0001928 273.6023  86.4624 15.70830698 42854
STARLINK-11562 [DTC]    
1 62918U 25027M   25304.73938125  .00306890  00000+0  23099-2 0  9994
2 62918  42.9997  44.7471 0001930 276.0242  84.0406 15.70819711 42919
STARLINK-11457 [DTC]    
1 62919U 25027N   25304.66519318  .00292293  00000+0  21785-2 0  9997
2 62919  42.9987  45.0446 0001917   5.0732 355.0155 15.71098007 42868
STARLINK-32921          
1 62920U 25027P   25304.55015252  .00039983  00000+0  14529-2 0  9998
2 62920  43.0003 138.0467 0003450 293.9943  66.0547 15.27614775 41795
STARLINK-32917          
1 62921U 25027Q   25304.82582422  .00030782  00000+0  11229-2 0  9999
2 62921  43.0005 136.6736 0002218 267.8417  92.2181 15.27594126 41835
STARLINK-32916          
1 62922U 25027R   25304.55400142  .00004362  00000+0  16792-3 0  9994
2 62922  42.9989 138.0705 0000941 267.7872  92.2872 15.27584724 41797
STARLINK-32905          
1 62923U 25027S   25304.83739495  .00032541  00000+0  11866-2 0  9998
2 62923  43.0071 136.7659 0002802 278.0727  81.9807 15.27583856 41830
STARLINK-32871          
1 62924U 25027T   25304.56042844  .00044142  00000+0  16041-2 0  9994
2 62924  42.9988 138.1173 0001721 269.7410  90.3244 15.27577436 41799
STARLINK-32920          
1 62925U 25027U   25304.55657301  .00032034  00000+0  11674-2 0  9998
2 62925  42.9988 138.0872 0003674 292.4863  67.5599 15.27609255 41793
STARLINK-32922          
1 62926U 25027V   25304.57199328  .00046284  00000+0  16804-2 0  9993
2 62926  43.0016 138.2098 0001700 269.3980  90.6677 15.27589150 41796
STARLINK-32891          
1 62927U 25027W   25304.83996148  .00038519  00000+0  14001-2 0  9997
2 62927  43.0002 136.7824 0000583 239.3298 120.7496 15.27625120 41959
STARLINK-32728          
1 62948U 25029A   25304.77773699  .00025949  00000+0  88547-3 0  9999
2 62948  53.1608 108.8930 0001130 118.2500 241.8615 15.30189562 41658
STARLINK-32857          
1 62949U 25029B   25304.76191039  .00018931  00000+0  65007-3 0  9990
2 62949  53.1564 108.8060 0001117  83.3955 276.7173 15.30180231 41655
STARLINK-32850          
1 62950U 25029C   25304.73405561  .00046173  00000+0  15607-2 0  9996
2 62950  53.1600 111.4621 0000778  86.2473 273.8617 15.30214689 41588
STARLINK-32875          
1 62951U 25029D   25304.72297258  .00061346  00000+0  20639-2 0  9998
2 62951  53.1601 109.2648 0001210  84.9205 275.1933 15.30237969 41610
STARLINK-32865          
1 62952U 25029E   25304.79304159  .00044078  00000+0  14922-2 0  9996
2 62952  53.1592 111.1177 0000985  85.7432 274.3681 15.30185247 41597
